[{"OBJECT_NAME":"STARLINK-3811","OBJECT_ID":"2022-045BE","EPOCH":"2026-03-09T14:54:01.530720","MEAN_MOTION":15.08838033,"ECCENTRICITY":0.0001242,"INCLINATION":53.218,"RA_OF_ASC_NODE":179.4614,"ARG_OF_PERICENTER":93.7502,"MEAN_ANOMALY":266.3632,"EPHEMERIS_TYPE":0,"CLASSIFICATION_TYPE":"U","NORAD_CAT_ID":52383,"ELEMENT_SET_NO":999,"REV_AT_EPOCH":21605,"BSTAR":2.6212e-5,"MEAN_MOTION_DOT":1.29e-6,"MEAN_MOTION_DDOT":0},{"OBJECT_NAME":"CZ-6A DEB","OBJECT_ID":"2022-151UT","EPOCH":"2026-03-09T17:50:02.810976","MEAN_MOTION":14.9898329,"ECCENTRICITY":0.00453187,"INCLINATION":98.6222,"RA_OF_ASC_NODE":145.5138,"ARG_OF_PERICENTER":180.208,"MEAN_ANOMALY":179.9129,"EPHEMERIS_TYPE":0,"CLASSIFICATION_TYPE":"U","NORAD_CAT_ID":55003,"ELEMENT_SET_NO":999,"REV_AT_EPOCH":17561,"BSTAR":0.0047870048,"MEAN_MOTION_DOT":0.00059614,"MEAN_MOTION_DDOT":0}]
